[
    {
        "name": "Afghanistan",
        "capital": "Kabul",
        "languages": [
            {
                "iso639_1": "ps",
                "iso639_2": "pus",
                "name": "Pashto",
                "nativeName": "پښتو"
            },
            {
                "iso639_1": "uz",
                "iso639_2": "uzb",
                "name": "Uzbek",
                "nativeName": "Oʻzbek"
            },
            {
                "iso639_1": "tk",
                "iso639_2": "tuk",
                "name": "Turkmen",
                "nativeName": "Türkmen"
            }
        ],
        "independent": false
    },
    {
        "name": "Åland Islands",
        "capital": "Mariehamn",
        "languages": [
            {
                "iso639_1": "sv",
                "iso639_2": "swe",
                "name": "Swedish",
                "nativeName": "svenska"
            }
        ],
        "independent": false
    },
    {
        "name": "Albania",
        "capital": "Tirana",
        "languages": [
            {
                "iso639_1": "sq",
                "iso639_2": "sqi",
                "name": "Albanian",
                "nativeName": "Shqip"
            }
        ],
        "independent": false
    },
    {
        "name": "Algeria",
        "capital": "Algiers",
        "languages": [
            {
                "iso639_1": "ar",
                "iso639_2": "ara",
                "name": "Arabic",
                "nativeName": "العربية"
            }
        ],
        "independent": false
    },
    {
        "name": "American Samoa",
        "capital": "Pago Pago",
        "languages": [
            {
                "iso639_1": "en",
                "iso639_2": "eng",
                "name": "English",
                "nativeName": "English"
            },
            {
                "iso639_1": "sm",
                "iso639_2": "smo",
                "name": "Samoan",
                "nativeName": "gagana fa'a Samoa"
            }
        ],
        "independent": false
    },
    {
        "name": "Andorra",
        "capital": "Andorra la Vella",
        "languages": [
            {
                "iso639_1": "ca",
                "iso639_2": "cat",
                "name": "Catalan",
                "nativeName": "català"
            }
        ],
        "independent": false
    },
    {
        "name": "Angola",
        "capital": "Luanda",
        "languages": [
            {
                "iso639_1": "pt",
                "iso639_2": "por",
                "name": "Portuguese",
                "nativeName": "Português"
            }
        ],
        "independent": false
    },
    {
        "name": "Anguilla",
        "capital": "The Valley",
        "languages": [
            {
                "iso639_1": "en",
                "iso639_2": "eng",
                "name": "English",
                "nativeName": "English"
            }
        ],
        "independent": false
    },
    {
        "name": "Antarctica",
        "languages": [
            {
                "iso639_1": "en",
                "iso639_2": "eng",
                "name": "English",
                "nativeName": "English"
            },
            {
                "iso639_1": "ru",
                "iso639_2": "rus",
                "name": "Russian",
                "nativeName": "Русский"
            }
        ],
        "independent": false
    },
    {
        "name": "Antigua and Barbuda",
        "capital": "Saint John's",
        "languages": [
            {
                "iso639_1": "en",
                "iso639_2": "eng",
                "name": "English",
                "nativeName": "English"
            }
        ],
        "independent": false
    },
    {
        "name": "Argentina",
        "capital": "Buenos Aires",
        "languages": [
            {
                "iso639_1": "es",
                "iso639_2": "spa",
                "name": "Spanish",
                "nativeName": "Español"
            },
            {
                "iso639_1": "gn",
                "iso639_2": "grn",
                "name": "Guaraní",
                "nativeName": "Avañe'ẽ"
            }
        ],
        "independent": false
    },
    {
        "name": "Armenia",
        "capital": "Yerevan",
        "languages": [
            {
                "iso639_1": "hy",
                "iso639_2": "hye",
                "name": "Armenian",
                "nativeName": "Հայերեն"
            }
        ],
        "independent": false
    },
    {
        "name": "Aruba",
        "capital": "Oranjestad",
        "languages": [
            {
                "iso639_1": "nl",
                "iso639_2": "nld",
                "name": "Dutch",
                "nativeName": "Nederlands"
            },
            {
                "iso639_1": "pa",
                "iso639_2": "pan",
                "name": "(Eastern) Punjabi",
                "nativeName": "ਪੰਜਾਬੀ"
            }
        ],
        "independent": false
    },
    {
        "name": "Australia",
        "capital": "Canberra",
        "languages": [
            {
                "iso639_1": "en",
                "iso639_2": "eng",
                "name": "English",
                "nativeName": "English"
            }
        ],
        "independent": false
    },
    {
        "name": "Austria",
        "capital": "Vienna",
        "languages": [
            {
                "iso639_1": "de",
                "iso639_2": "deu",
                "name": "German",
                "nativeName": "Deutsch"
            }
        ],
        "independent": false
    },
    {
        "name": "Azerbaijan",
        "capital": "Baku",
        "languages": [
            {
                "iso639_1": "az",
                "iso639_2": "aze",
                "name": "Azerbaijani",
                "nativeName": "azərbaycan dili"
            }
        ],
        "independent": false
    },
    {
        "name": "Bahamas",
        "capital": "Nassau",
        "languages": [
            {
                "iso639_1": "en",
                "iso639_2": "eng",
                "name": "English",
                "nativeName": "English"
            }
        ],
        "independent": false
    },
    {
        "name": "Bahrain",
        "capital": "Manama",
        "languages": [
            {
                "iso639_1": "ar",
                "iso639_2": "ara",
                "name": "Arabic",
                "nativeName": "العربية"
            }
        ],
        "independent": false
    },
    {
        "name": "Bangladesh",
        "capital": "Dhaka",
        "languages": [
            {
                "iso639_1": "bn",
                "iso639_2": "ben",
                "name": "Bengali",
                "nativeName": "বাংলা"
            }
        ],
        "independent": false
    },
    {
        "name": "Barbados",
        "capital": "Bridgetown",
        "languages": [
            {
                "iso639_1": "en",
                "iso639_2": "eng",
                "name": "English",
                "nativeName": "English"
            }
        ],
        "independent": false
    },
    {
        "name": "Belarus",
        "capital": "Minsk",
        "languages": [
            {
                "iso639_1": "be",
                "iso639_2": "bel",
                "name": "Belarusian",
                "nativeName": "беларуская мова"
            },
            {
                "iso639_1": "ru",
                "iso639_2": "rus",
                "name": "Russian",
                "nativeName": "Русский"
            }
        ],
        "independent": false
    },
    {
        "name": "Belgium",
        "capital": "Brussels",
        "languages": [
            {
                "iso639_1": "nl",
                "iso639_2": "nld",
                "name": "Dutch",
                "nativeName": "Nederlands"
            },
            {
                "iso639_1": "fr",
                "iso639_2": "fra",
                "name": "French",
                "nativeName": "français"
            },
            {
                "iso639_1": "de",
                "iso639_2": "deu",
                "name": "German",
                "nativeName": "Deutsch"
            }
        ],
        "independent": false
    },
    {
        "name": "Belize",
        "capital": "Belmopan",
        "languages": [
            {
                "iso639_1": "en",
                "iso639_2": "eng",
                "name": "English",
                "nativeName": "English"
            },
            {
                "iso639_1": "es",
                "iso639_2": "spa",
                "name": "Spanish",
                "nativeName": "Español"
            }
        ],
        "independent": false
    },
    {
        "name": "Benin",
        "capital": "Porto-Novo",
        "languages": [
            {
                "iso639_1": "fr",
                "iso639_2": "fra",
                "name": "French",
                "nativeName": "français"
            }
        ],
        "independent": false
    },
    {
        "name": "Bermuda",
        "capital": "Hamilton",
        "languages": [
            {
                "iso639_1": "en",
                "iso639_2": "eng",
                "name": "English",
                "nativeName": "English"
            }
        ],
        "independent": false
    },
    {
        "name": "Bhutan",
        "capital": "Thimphu",
        "languages": [
            {
                "iso639_1": "dz",
                "iso639_2": "dzo",
                "name": "Dzongkha",
                "nativeName": "རྫོང་ཁ"
            }
        ],
        "independent": false
    },
    {
        "name": "Bolivia (Plurinational State of)",
        "capital": "Sucre",
        "languages": [
            {
                "iso639_1": "es",
                "iso639_2": "spa",
                "name": "Spanish",
                "nativeName": "Español"
            },
            {
                "iso639_1": "ay",
                "iso639_2": "aym",
                "name": "Aymara",
                "nativeName": "aymar aru"
            },
            {
                "iso639_1": "qu",
                "iso639_2": "que",
                "name": "Quechua",
                "nativeName": "Runa Simi"
            }
        ],
        "independent": false
    },
    {
        "name": "Bonaire, Sint Eustatius and Saba",
        "capital": "Kralendijk",
        "languages": [
            {
                "iso639_1": "nl",
                "iso639_2": "nld",
                "name": "Dutch",
                "nativeName": "Nederlands"
            }
        ],
        "independent": false
    },
    {
        "name": "Bosnia and Herzegovina",
        "capital": "Sarajevo",
        "languages": [
            {
                "iso639_1": "bs",
                "iso639_2": "bos",
                "name": "Bosnian",
                "nativeName": "bosanski jezik"
            },
            {
                "iso639_1": "hr",
                "iso639_2": "hrv",
                "name": "Croatian",
                "nativeName": "hrvatski jezik"
            },
            {
                "iso639_1": "sr",
                "iso639_2": "srp",
                "name": "Serbian",
                "nativeName": "српски језик"
            }
        ],
        "independent": false
    },
    {
        "name": "Botswana",
        "capital": "Gaborone",
        "languages": [
            {
                "iso639_1": "en",
                "iso639_2": "eng",
                "name": "English",
                "nativeName": "English"
            },
            {
                "iso639_1": "tn",
                "iso639_2": "tsn",
                "name": "Tswana",
                "nativeName": "Setswana"
            }
        ],
        "independent": false
    },
    {
        "name": "Bouvet Island",
        "languages": [
            {
                "iso639_1": "no",
                "iso639_2": "nor",
                "name": "Norwegian",
                "nativeName": "Norsk"
            },
            {
                "iso639_1": "nb",
                "iso639_2": "nob",
                "name": "Norwegian Bokmål",
                "nativeName": "Norsk bokmål"
            },
            {
                "iso639_1": "nn",
                "iso639_2": "nno",
                "name": "Norwegian Nynorsk",
                "nativeName": "Norsk nynorsk"
            }
        ],
        "independent": false
    },
    {
        "name": "Brazil",
        "capital": "Brasília",
        "languages": [
            {
                "iso639_1": "pt",
                "iso639_2": "por",
                "name": "Portuguese",
                "nativeName": "Português"
            }
        ],
        "independent": false
    },
    {
        "name": "British Indian Ocean Territory",
        "capital": "Diego Garcia",
        "languages": [
            {
                "iso639_1": "en",
                "iso639_2": "eng",
                "name": "English",
                "nativeName": "English"
            }
        ],
        "independent": false
    },
    {
        "name": "United States Minor Outlying Islands",
        "languages": [
            {
                "iso639_1": "en",
                "iso639_2": "eng",
                "name": "English",
                "nativeName": "English"
            }
        ],
        "independent": false
    },
    {
        "name": "Virgin Islands (British)",
        "capital": "Road Town",
        "languages": [
            {
                "iso639_1": "en",
                "iso639_2": "eng",
                "name": "English",
                "nativeName": "English"
            }
        ],
        "independent": false
    },
    {
        "name": "Virgin Islands (U.S.)",
        "capital": "Charlotte Amalie",
        "languages": [
            {
                "iso639_1": "en",
                "iso639_2": "eng",
                "name": "English",
                "nativeName": "English"
            }
        ],
        "independent": false
    },
    {
        "name": "Brunei Darussalam",
        "capital": "Bandar Seri Begawan",
        "languages": [
            {
                "iso639_1": "ms",
                "iso639_2": "msa",
                "name": "Malay",
                "nativeName": "bahasa Melayu"
            }
        ],
        "independent": false
    },
    {
        "name": "Bulgaria",
        "capital": "Sofia",
        "languages": [
            {
                "iso639_1": "bg",
                "iso639_2": "bul",
                "name": "Bulgarian",
                "nativeName": "български език"
            }
        ],
        "independent": false
    },
    {
        "name": "Burkina Faso",
        "capital": "Ouagadougou",
        "languages": [
            {
                "iso639_1": "fr",
                "iso639_2": "fra",
                "name": "French",
                "nativeName": "français"
            },
            {
                "iso639_1": "ff",
                "iso639_2": "ful",
                "name": "Fula",
                "nativeName": "Fulfulde"
            }
        ],
        "independent": false
    },
    {
        "name": "Burundi",
        "capital": "Gitega",
        "languages": [
            {
                "iso639_1": "fr",
                "iso639_2": "fra",
                "name": "French",
                "nativeName": "français"
            },
            {
                "iso639_1": "rn",
                "iso639_2": "run",
                "name": "Kirundi",
                "nativeName": "Ikirundi"
            }
        ],
        "independent": false
    },
    {
        "name": "Cambodia",
        "capital": "Phnom Penh",
        "languages": [
            {
                "iso639_1": "km",
                "iso639_2": "khm",
                "name": "Khmer",
                "nativeName": "ខ្មែរ"
            }
        ],
        "independent": false
    },
    {
        "name": "Cameroon",
        "capital": "Yaoundé",
        "languages": [
            {
                "iso639_1": "en",
                "iso639_2": "eng",
                "name": "English",
                "nativeName": "English"
            },
            {
                "iso639_1": "fr",
                "iso639_2": "fra",
                "name": "French",
                "nativeName": "français"
            }
        ],
        "independent": false
    },
    {
        "name": "Canada",
        "capital": "Ottawa",
        "languages": [
            {
                "iso639_1": "en",
                "iso639_2": "eng",
                "name": "English",
                "nativeName": "English"
            },
            {
                "iso639_1": "fr",
                "iso639_2": "fra",
                "name": "French",
                "nativeName": "français"
            }
        ],
        "independent": false
    },
    {
        "name": "Cabo Verde",
        "capital": "Praia",
        "languages": [
            {
                "iso639_1": "pt",
                "iso639_2": "por",
                "name": "Portuguese",
                "nativeName": "Português"
            }
        ],
        "independent": false
    },
    {
        "name": "Cayman Islands",
        "capital": "George Town",
        "languages": [
            {
                "iso639_1": "en",
                "iso639_2": "eng",
                "name": "English",
                "nativeName": "English"
            }
        ],
        "independent": false
    },
    {
        "name": "Central African Republic",
        "capital": "Bangui",
        "languages": [
            {
                "iso639_1": "fr",
                "iso639_2": "fra",
                "name": "French",
                "nativeName": "français"
            },
            {
                "iso639_1": "sg",
                "iso639_2": "sag",
                "name": "Sango",
                "nativeName": "yângâ tî sängö"
            }
        ],
        "independent": false
    },
    {
        "name": "Chad",
        "capital": "N'Djamena",
        "languages": [
            {
                "iso639_1": "fr",
                "iso639_2": "fra",
                "name": "French",
                "nativeName": "français"
            },
            {
                "iso639_1": "ar",
                "iso639_2": "ara",
                "name": "Arabic",
                "nativeName": "العربية"
            }
        ],
        "independent": false
    },
    {
        "name": "Chile",
        "capital": "Santiago",
        "languages": [
            {
                "iso639_1": "es",
                "iso639_2": "spa",
                "name": "Spanish",
                "nativeName": "Español"
            }
        ],
        "independent": false
    },
    {
        "name": "China",
        "capital": "Beijing",
        "languages": [
            {
                "iso639_1": "zh",
                "iso639_2": "zho",
                "name": "Chinese",
                "nativeName": "中文 (Zhōngwén)"
            }
        ],
        "independent": false
    },
    {
        "name": "Christmas Island",
        "capital": "Flying Fish Cove",
        "languages": [
            {
                "iso639_1": "en",
                "iso639_2": "eng",
                "name": "English",
                "nativeName": "English"
            }
        ],
        "independent": false
    },
    {
        "name": "Cocos (Keeling) Islands",
        "capital": "West Island",
        "languages": [
            {
                "iso639_1": "en",
                "iso639_2": "eng",
                "name": "English",
                "nativeName": "English"
            }
        ],
        "independent": false
    },
    {
        "name": "Colombia",
        "capital": "Bogotá",
        "languages": [
            {
                "iso639_1": "es",
                "iso639_2": "spa",
                "name": "Spanish",
                "nativeName": "Español"
            }
        ],
        "independent": false
    },
    {
        "name": "Comoros",
        "capital": "Moroni",
        "languages": [
            {
                "iso639_1": "ar",
                "iso639_2": "ara",
                "name": "Arabic",
                "nativeName": "العربية"
            },
            {
                "iso639_1": "fr",
                "iso639_2": "fra",
                "name": "French",
                "nativeName": "français"
            }
        ],
        "independent": false
    },
    {
        "name": "Congo",
        "capital": "Brazzaville",
        "languages": [
            {
                "iso639_1": "fr",
                "iso639_2": "fra",
                "name": "French",
                "nativeName": "français"
            },
            {
                "iso639_1": "ln",
                "iso639_2": "lin",
                "name": "Lingala",
                "nativeName": "Lingála"
            }
        ],
        "independent": false
    },
    {
        "name": "Congo (Democratic Republic of the)",
        "capital": "Kinshasa",
        "languages": [
            {
                "iso639_1": "fr",
                "iso639_2": "fra",
                "name": "French",
                "nativeName": "français"
            },
            {
                "iso639_1": "ln",
                "iso639_2": "lin",
                "name": "Lingala",
                "nativeName": "Lingála"
            },
            {
                "iso639_1": "kg",
                "iso639_2": "kon",
                "name": "Kongo",
                "nativeName": "Kikongo"
            },
            {
                "iso639_1": "sw",
                "iso639_2": "swa",
                "name": "Swahili",
                "nativeName": "Kiswahili"
            },
            {
                "iso639_1": "lu",
                "iso639_2": "lub",
                "name": "Luba-Katanga",
                "nativeName": "Tshiluba"
            }
        ],
        "independent": false
    },
    {
        "name": "Cook Islands",
        "capital": "Avarua",
        "languages": [
            {
                "iso639_1": "en",
                "iso639_2": "eng",
                "name": "English",
                "nativeName": "English"
            },
            {
                "iso639_2": "rar",
                "name": "Cook Islands Māori",
                "nativeName": "Māori"
            }
        ],
        "independent": false
    },
    {
        "name": "Costa Rica",
        "capital": "San José",
        "languages": [
            {
                "iso639_1": "es",
                "iso639_2": "spa",
                "name": "Spanish",
                "nativeName": "Español"
            }
        ],
        "independent": false
    },
    {
        "name": "Croatia",
        "capital": "Zagreb",
        "languages": [
            {
                "iso639_1": "hr",
                "iso639_2": "hrv",
                "name": "Croatian",
                "nativeName": "hrvatski jezik"
            }
        ],
        "independent": false
    },
    {
        "name": "Cuba",
        "capital": "Havana",
        "languages": [
            {
                "iso639_1": "es",
                "iso639_2": "spa",
                "name": "Spanish",
                "nativeName": "Español"
            }
        ],
        "independent": false
    },
    {
        "name": "Curaçao",
        "capital": "Willemstad",
        "languages": [
            {
                "iso639_1": "nl",
                "iso639_2": "nld",
                "name": "Dutch",
                "nativeName": "Nederlands"
            },
            {
                "iso639_1": "pa",
                "iso639_2": "pan",
                "name": "(Eastern) Punjabi",
                "nativeName": "ਪੰਜਾਬੀ"
            },
            {
                "iso639_1": "en",
                "iso639_2": "eng",
                "name": "English",
                "nativeName": "English"
            }
        ],
        "independent": false
    },
    {
        "name": "Cyprus",
        "capital": "Nicosia",
        "languages": [
            {
                "iso639_1": "el",
                "iso639_2": "ell",
                "name": "Greek (modern)",
                "nativeName": "ελληνικά"
            },
            {
                "iso639_1": "tr",
                "iso639_2": "tur",
                "name": "Turkish",
                "nativeName": "Türkçe"
            },
            {
                "iso639_1": "hy",
                "iso639_2": "hye",
                "name": "Armenian",
                "nativeName": "Հայերեն"
            }
        ],
        "independent": false
    },
    {
        "name": "Czech Republic",
        "capital": "Prague",
        "languages": [
            {
                "iso639_1": "cs",
                "iso639_2": "ces",
                "name": "Czech",
                "nativeName": "čeština"
            },
            {
                "iso639_1": "sk",
                "iso639_2": "slk",
                "name": "Slovak",
                "nativeName": "slovenčina"
            }
        ],
        "independent": false
    },
    {
        "name": "Denmark",
        "capital": "Copenhagen",
        "languages": [
            {
                "iso639_1": "da",
                "iso639_2": "dan",
                "name": "Danish",
                "nativeName": "dansk"
            }
        ],
        "independent": false
    },
    {
        "name": "Djibouti",
        "capital": "Djibouti",
        "languages": [
            {
                "iso639_1": "fr",
                "iso639_2": "fra",
                "name": "French",
                "nativeName": "français"
            },
            {
                "iso639_1": "ar",
                "iso639_2": "ara",
                "name": "Arabic",
                "nativeName": "العربية"
            }
        ],
        "independent": false
    },
    {
        "name": "Dominica",
        "capital": "Roseau",
        "languages": [
            {
                "iso639_1": "en",
                "iso639_2": "eng",
                "name": "English",
                "nativeName": "English"
            }
        ],
        "independent": false
    },
    {
        "name": "Dominican Republic",
        "capital": "Santo Domingo",
        "languages": [
            {
                "iso639_1": "es",
                "iso639_2": "spa",
                "name": "Spanish",
                "nativeName": "Español"
            }
        ],
        "independent": false
    },
    {
        "name": "Ecuador",
        "capital": "Quito",
        "languages": [
            {
                "iso639_1": "es",
                "iso639_2": "spa",
                "name": "Spanish",
                "nativeName": "Español"
            }
        ],
        "independent": false
    },
    {
        "name": "Egypt",
        "capital": "Cairo",
        "languages": [
            {
                "iso639_1": "ar",
                "iso639_2": "ara",
                "name": "Arabic",
                "nativeName": "العربية"
            }
        ],
        "independent": false
    },
    {
        "name": "El Salvador",
        "capital": "San Salvador",
        "languages": [
            {
                "iso639_1": "es",
                "iso639_2": "spa",
                "name": "Spanish",
                "nativeName": "Español"
            }
        ],
        "independent": false
    },
    {
        "name": "Equatorial Guinea",
        "capital": "Malabo",
        "languages": [
            {
                "iso639_1": "es",
                "iso639_2": "spa",
                "name": "Spanish",
                "nativeName": "Español"
            },
            {
                "iso639_1": "fr",
                "iso639_2": "fra",
                "name": "French",
                "nativeName": "français"
            },
            {
                "iso639_1": "pt",
                "iso639_2": "por",
                "name": "Portuguese",
                "nativeName": "Português"
            },
            {
                "iso639_2": "fan",
                "name": "Fang",
                "nativeName": "Fang"
            }
        ],
        "independent": false
    },
    {
        "name": "Eritrea",
        "capital": "Asmara",
        "languages": [
            {
                "iso639_1": "ti",
                "iso639_2": "tir",
                "name": "Tigrinya",
                "nativeName": "ትግርኛ"
            },
            {
                "iso639_1": "ar",
                "iso639_2": "ara",
                "name": "Arabic",
                "nativeName": "العربية"
            },
            {
                "iso639_1": "en",
                "iso639_2": "eng",
                "name": "English",
                "nativeName": "English"
            },
            {
                "iso639_2": "tig",
                "name": "Tigre",
                "nativeName": "ትግረ"
            },
            {
                "iso639_2": "kun",
                "name": "Kunama",
                "nativeName": "Kunama"
            },
            {
                "iso639_2": "ssy",
                "name": "Saho",
                "nativeName": "Saho"
            },
            {
                "iso639_2": "byn",
                "name": "Bilen",
                "nativeName": "ብሊና"
            },
            {
                "iso639_2": "nrb",
                "name": "Nara",
                "nativeName": "Nara"
            },
            {
                "iso639_1": "aa",
                "iso639_2": "aar",
                "name": "Afar",
                "nativeName": "Afar"
            }
        ],
        "independent": false
    },
    {
        "name": "Estonia",
        "capital": "Tallinn",
        "languages": [
            {
                "iso639_1": "et",
                "iso639_2": "est",
                "name": "Estonian",
                "nativeName": "eesti"
            }
        ],
        "independent": false
    },
    {
        "name": "Ethiopia",
        "capital": "Addis Ababa",
        "languages": [
            {
                "iso639_1": "am",
                "iso639_2": "amh",
                "name": "Amharic",
                "nativeName": "አማርኛ"
            }
        ],
        "independent": false
    },
    {
        "name": "Falkland Islands (Malvinas)",
        "capital": "Stanley",
        "languages": [
            {
                "iso639_1": "en",
                "iso639_2": "eng",
                "name": "English",
                "nativeName": "English"
            }
        ],
        "independent": false
    },
    {
        "name": "Faroe Islands",
        "capital": "Tórshavn",
        "languages": [
            {
                "iso639_1": "fo",
                "iso639_2": "fao",
                "name": "Faroese",
                "nativeName": "føroyskt"
            }
        ],
        "independent": false
    },
    {
        "name": "Fiji",
        "capital": "Suva",
        "languages": [
            {
                "iso639_1": "en",
                "iso639_2": "eng",
                "name": "English",
                "nativeName": "English"
            },
            {
                "iso639_1": "fj",
                "iso639_2": "fij",
                "name": "Fijian",
                "nativeName": "vosa Vakaviti"
            },
            {
                "iso639_2": "hif",
                "name": "Fiji Hindi",
                "nativeName": "फ़िजी बात"
            },
            {
                "iso639_2": "rtm",
                "name": "Rotuman",
                "nativeName": "Fäeag Rotuma"
            }
        ],
        "independent": false
    },
    {
        "name": "Finland",
        "capital": "Helsinki",
        "languages": [
            {
                "iso639_1": "fi",
                "iso639_2": "fin",
                "name": "Finnish",
                "nativeName": "suomi"
            },
            {
                "iso639_1": "sv",
                "iso639_2": "swe",
                "name": "Swedish",
                "nativeName": "svenska"
            }
        ],
        "independent": false
    },
    {
        "name": "France",
        "capital": "Paris",
        "languages": [
            {
                "iso639_1": "fr",
                "iso639_2": "fra",
                "name": "French",
                "nativeName": "français"
            }
        ],
        "independent": false
    },
    {
        "name": "French Guiana",
        "capital": "Cayenne",
        "languages": [
            {
                "iso639_1": "fr",
                "iso639_2": "fra",
                "name": "French",
                "nativeName": "français"
            }
        ],
        "independent": false
    },
    {
        "name": "French Polynesia",
        "capital": "Papeetē",
        "languages": [
            {
                "iso639_1": "fr",
                "iso639_2": "fra",
                "name": "French",
                "nativeName": "français"
            }
        ],
        "independent": false
    },
    {
        "name": "French Southern Territories",
        "capital": "Port-aux-Français",
        "languages": [
            {
                "iso639_1": "fr",
                "iso639_2": "fra",
                "name": "French",
                "nativeName": "français"
            }
        ],
        "independent": false
    },
    {
        "name": "Gabon",
        "capital": "Libreville",
        "languages": [
            {
                "iso639_1": "fr",
                "iso639_2": "fra",
                "name": "French",
                "nativeName": "français"
            }
        ],
        "independent": false
    },
    {
        "name": "Gambia",
        "capital": "Banjul",
        "languages": [
            {
                "iso639_1": "en",
                "iso639_2": "eng",
                "name": "English",
                "nativeName": "English"
            }
        ],
        "independent": false
    },
    {
        "name": "Georgia",
        "capital": "Tbilisi",
        "languages": [
            {
                "iso639_1": "ka",
                "iso639_2": "kat",
                "name": "Georgian",
                "nativeName": "ქართული"
            }
        ],
        "independent": false
    },
    {
        "name": "Germany",
        "capital": "Berlin",
        "languages": [
            {
                "iso639_1": "de",
                "iso639_2": "deu",
                "name": "German",
                "nativeName": "Deutsch"
            }
        ],
        "independent": false
    },
    {
        "name": "Ghana",
        "capital": "Accra",
        "languages": [
            {
                "iso639_1": "en",
                "iso639_2": "eng",
                "name": "English",
                "nativeName": "English"
            }
        ],
        "independent": false
    },
    {
        "name": "Gibraltar",
        "capital": "Gibraltar",
        "languages": [
            {
                "iso639_1": "en",
                "iso639_2": "eng",
                "name": "English",
                "nativeName": "English"
            }
        ],
        "independent": false
    },
    {
        "name": "Greece",
        "capital": "Athens",
        "languages": [
            {
                "iso639_1": "el",
                "iso639_2": "ell",
                "name": "Greek (modern)",
                "nativeName": "ελληνικά"
            }
        ],
        "independent": false
    },
    {
        "name": "Greenland",
        "capital": "Nuuk",
        "languages": [
            {
                "iso639_1": "kl",
                "iso639_2": "kal",
                "name": "Kalaallisut",
                "nativeName": "kalaallisut"
            }
        ],
        "independent": false
    },
    {
        "name": "Grenada",
        "capital": "St. George's",
        "languages": [
            {
                "iso639_1": "en",
                "iso639_2": "eng",
                "name": "English",
                "nativeName": "English"
            }
        ],
        "independent": false
    },
    {
        "name": "Guadeloupe",
        "capital": "Basse-Terre",
        "languages": [
            {
                "iso639_1": "fr",
                "iso639_2": "fra",
                "name": "French",
                "nativeName": "français"
            }
        ],
        "independent": false
    },
    {
        "name": "Guam",
        "capital": "Hagåtña",
        "languages": [
            {
                "iso639_1": "en",
                "iso639_2": "eng",
                "name": "English",
                "nativeName": "English"
            },
            {
                "iso639_1": "ch",
                "iso639_2": "cha",
                "name": "Chamorro",
                "nativeName": "Chamoru"
            },
            {
                "iso639_1": "es",
                "iso639_2": "spa",
                "name": "Spanish",
                "nativeName": "Español"
            }
        ],
        "independent": false
    },
    {
        "name": "Guatemala",
        "capital": "Guatemala City",
        "languages": [
            {
                "iso639_1": "es",
                "iso639_2": "spa",
                "name": "Spanish",
                "nativeName": "Español"
            }
        ],
        "independent": false
    },
    {
        "name": "Guernsey",
        "capital": "St. Peter Port",
        "languages": [
            {
                "iso639_1": "en",
                "iso639_2": "eng",
                "name": "English",
                "nativeName": "English"
            },
            {
                "iso639_1": "fr",
                "iso639_2": "fra",
                "name": "French",
                "nativeName": "français"
            }
        ],
        "independent": false
    },
    {
        "name": "Guinea",
        "capital": "Conakry",
        "languages": [
            {
                "iso639_1": "fr",
                "iso639_2": "fra",
                "name": "French",
                "nativeName": "français"
            },
            {
                "iso639_1": "ff",
                "iso639_2": "ful",
                "name": "Fula",
                "nativeName": "Fulfulde"
            }
        ],
        "independent": false
    },
    {
        "name": "Guinea-Bissau",
        "capital": "Bissau",
        "languages": [
            {
                "iso639_1": "pt",
                "iso639_2": "por",
                "name": "Portuguese",
                "nativeName": "Português"
            }
        ],
        "independent": false
    },
    {
        "name": "Guyana",
        "capital": "Georgetown",
        "languages": [
            {
                "iso639_1": "en",
                "iso639_2": "eng",
                "name": "English",
                "nativeName": "English"
            }
        ],
        "independent": false
    },
    {
        "name": "Haiti",
        "capital": "Port-au-Prince",
        "languages": [
            {
                "iso639_1": "fr",
                "iso639_2": "fra",
                "name": "French",
                "nativeName": "français"
            },
            {
                "iso639_1": "ht",
                "iso639_2": "hat",
                "name": "Haitian",
                "nativeName": "Kreyòl ayisyen"
            }
        ],
        "independent": false
    },
    {
        "name": "Heard Island and McDonald Islands",
        "languages": [
            {
                "iso639_1": "en",
                "iso639_2": "eng",
                "name": "English",
                "nativeName": "English"
            }
        ],
        "independent": false
    },
    {
        "name": "Vatican City",
        "capital": "Vatican City",
        "languages": [
            {
                "iso639_1": "la",
                "iso639_2": "lat",
                "name": "Latin",
                "nativeName": "latine"
            },
            {
                "iso639_1": "it",
                "iso639_2": "ita",
                "name": "Italian",
                "nativeName": "Italiano"
            },
            {
                "iso639_1": "fr",
                "iso639_2": "fra",
                "name": "French",
                "nativeName": "Français"
            },
            {
                "iso639_1": "de",
                "iso639_2": "deu",
                "name": "German",
                "nativeName": "Deutsch"
            }
        ],
        "independent": false
    },
    {
        "name": "Honduras",
        "capital": "Tegucigalpa",
        "languages": [
            {
                "iso639_1": "es",
                "iso639_2": "spa",
                "name": "Spanish",
                "nativeName": "Español"
            }
        ],
        "independent": false
    },
    {
        "name": "Hungary",
        "capital": "Budapest",
        "languages": [
            {
                "iso639_1": "hu",
                "iso639_2": "hun",
                "name": "Hungarian",
                "nativeName": "magyar"
            }
        ],
        "independent": false
    },
    {
        "name": "Hong Kong",
        "capital": "City of Victoria",
        "languages": [
            {
                "iso639_1": "en",
                "iso639_2": "eng",
                "name": "English",
                "nativeName": "English"
            },
            {
                "iso639_1": "zh",
                "iso639_2": "zho",
                "name": "Chinese",
                "nativeName": "中文 (Zhōngwén)"
            }
        ],
        "independent": false
    },
    {
        "name": "Iceland",
        "capital": "Reykjavík",
        "languages": [
            {
                "iso639_1": "is",
                "iso639_2": "isl",
                "name": "Icelandic",
                "nativeName": "Íslenska"
            }
        ],
        "independent": false
    },
    {
        "name": "India",
        "capital": "New Delhi",
        "languages": [
            {
                "iso639_1": "hi",
                "iso639_2": "hin",
                "name": "Hindi",
                "nativeName": "हिन्दी"
            },
            {
                "iso639_1": "en",
                "iso639_2": "eng",
                "name": "English",
                "nativeName": "English"
            }
        ],
        "independent": false
    },
    {
        "name": "Indonesia",
        "capital": "Jakarta",
        "languages": [
            {
                "iso639_1": "id",
                "iso639_2": "ind",
                "name": "Indonesian",
                "nativeName": "Bahasa Indonesia"
            }
        ],
        "independent": false
    },
    {
        "name": "Ivory Coast",
        "capital": "Yamoussoukro",
        "languages": [
            {
                "iso639_1": "fr",
                "iso639_2": "fra",
                "name": "French",
                "nativeName": "français"
            }
        ],
        "independent": false
    },
    {
        "name": "Iran (Islamic Republic of)",
        "capital": "Tehran",
        "languages": [
            {
                "iso639_1": "fa",
                "iso639_2": "fas",
                "name": "Persian (Farsi)",
                "nativeName": "فارسی"
            }
        ],
        "independent": false
    },
    {
        "name": "Iraq",
        "capital": "Baghdad",
        "languages": [
            {
                "iso639_1": "ar",
                "iso639_2": "ara",
                "name": "Arabic",
                "nativeName": "العربية"
            },
            {
                "iso639_1": "ku",
                "iso639_2": "kur",
                "name": "Kurdish",
                "nativeName": "Kurdî"
            }
        ],
        "independent": false
    },
    {
        "name": "Ireland",
        "capital": "Dublin",
        "languages": [
            {
                "iso639_1": "ga",
                "iso639_2": "gle",
                "name": "Irish",
                "nativeName": "Gaeilge"
            },
            {
                "iso639_1": "en",
                "iso639_2": "eng",
                "name": "English",
                "nativeName": "English"
            }
        ],
        "independent": false
    },
    {
        "name": "Isle of Man",
        "capital": "Douglas",
        "languages": [
            {
                "iso639_1": "en",
                "iso639_2": "eng",
                "name": "English",
                "nativeName": "English"
            },
            {
                "iso639_1": "gv",
                "iso639_2": "glv",
                "name": "Manx",
                "nativeName": "Gaelg"
            }
        ],
        "independent": false
    },
    {
        "name": "Israel",
        "capital": "Jerusalem",
        "languages": [
            {
                "iso639_1": "he",
                "iso639_2": "heb",
                "name": "Hebrew (modern)",
                "nativeName": "עברית"
            },
            {
                "iso639_1": "ar",
                "iso639_2": "ara",
                "name": "Arabic",
                "nativeName": "العربية"
            }
        ],
        "independent": false
    },
    {
        "name": "Italy",
        "capital": "Rome",
        "languages": [
            {
                "iso639_1": "it",
                "iso639_2": "ita",
                "name": "Italian",
                "nativeName": "Italiano"
            }
        ],
        "independent": false
    },
    {
        "name": "Jamaica",
        "capital": "Kingston",
        "languages": [
            {
                "iso639_1": "en",
                "iso639_2": "eng",
                "name": "English",
                "nativeName": "English"
            }
        ],
        "independent": false
    },
    {
        "name": "Japan",
        "capital": "Tokyo",
        "languages": [
            {
                "iso639_1": "ja",
                "iso639_2": "jpn",
                "name": "Japanese",
                "nativeName": "日本語 (にほんご)"
            }
        ],
        "independent": false
    },
    {
        "name": "Jersey",
        "capital": "Saint Helier",
        "languages": [
            {
                "iso639_1": "en",
                "iso639_2": "eng",
                "name": "English",
                "nativeName": "English"
            },
            {
                "iso639_1": "fr",
                "iso639_2": "fra",
                "name": "French",
                "nativeName": "français"
            }
        ],
        "independent": false
    },
    {
        "name": "Jordan",
        "capital": "Amman",
        "languages": [
            {
                "iso639_1": "ar",
                "iso639_2": "ara",
                "name": "Arabic",
                "nativeName": "العربية"
            }
        ],
        "independent": false
    },
    {
        "name": "Kazakhstan",
        "capital": "Nur-Sultan",
        "languages": [
            {
                "iso639_1": "kk",
                "iso639_2": "kaz",
                "name": "Kazakh",
                "nativeName": "қазақ тілі"
            },
            {
                "iso639_1": "ru",
                "iso639_2": "rus",
                "name": "Russian",
                "nativeName": "Русский"
            }
        ],
        "independent": false
    },
    {
        "name": "Kenya",
        "capital": "Nairobi",
        "languages": [
            {
                "iso639_1": "en",
                "iso639_2": "eng",
                "name": "English",
                "nativeName": "English"
            },
            {
                "iso639_1": "sw",
                "iso639_2": "swa",
                "name": "Swahili",
                "nativeName": "Kiswahili"
            }
        ],
        "independent": false
    },
    {
        "name": "Kiribati",
        "capital": "South Tarawa",
        "languages": [
            {
                "iso639_1": "en",
                "iso639_2": "eng",
                "name": "English",
                "nativeName": "English"
            }
        ],
        "independent": false
    },
    {
        "name": "Kuwait",
        "capital": "Kuwait City",
        "languages": [
            {
                "iso639_1": "ar",
                "iso639_2": "ara",
                "name": "Arabic",
                "nativeName": "العربية"
            }
        ],
        "independent": false
    },
    {
        "name": "Kyrgyzstan",
        "capital": "Bishkek",
        "languages": [
            {
                "iso639_1": "ky",
                "iso639_2": "kir",
                "name": "Kyrgyz",
                "nativeName": "Кыргызча"
            },
            {
                "iso639_1": "ru",
                "iso639_2": "rus",
                "name": "Russian",
                "nativeName": "Русский"
            }
        ],
        "independent": false
    },
    {
        "name": "Lao People's Democratic Republic",
        "capital": "Vientiane",
        "languages": [
            {
                "iso639_1": "lo",
                "iso639_2": "lao",
                "name": "Lao",
                "nativeName": "ພາສາລາວ"
            }
        ],
        "independent": false
    },
    {
        "name": "Latvia",
        "capital": "Riga",
        "languages": [
            {
                "iso639_1": "lv",
                "iso639_2": "lav",
                "name": "Latvian",
                "nativeName": "latviešu valoda"
            }
        ],
        "independent": false
    },
    {
        "name": "Lebanon",
        "capital": "Beirut",
        "languages": [
            {
                "iso639_1": "ar",
                "iso639_2": "ara",
                "name": "Arabic",
                "nativeName": "العربية"
            },
            {
                "iso639_1": "fr",
                "iso639_2": "fra",
                "name": "French",
                "nativeName": "français"
            }
        ],
        "independent": false
    },
    {
        "name": "Lesotho",
        "capital": "Maseru",
        "languages": [
            {
                "iso639_1": "en",
                "iso639_2": "eng",
                "name": "English",
                "nativeName": "English"
            },
            {
                "iso639_1": "st",
                "iso639_2": "sot",
                "name": "Southern Sotho",
                "nativeName": "Sesotho"
            }
        ],
        "independent": false
    },
    {
        "name": "Liberia",
        "capital": "Monrovia",
        "languages": [
            {
                "iso639_1": "en",
                "iso639_2": "eng",
                "name": "English",
                "nativeName": "English"
            }
        ],
        "independent": false
    },
    {
        "name": "Libya",
        "capital": "Tripoli",
        "languages": [
            {
                "iso639_1": "ar",
                "iso639_2": "ara",
                "name": "Arabic",
                "nativeName": "العربية"
            }
        ],
        "independent": false
    },
    {
        "name": "Liechtenstein",
        "capital": "Vaduz",
        "languages": [
            {
                "iso639_1": "de",
                "iso639_2": "deu",
                "name": "German",
                "nativeName": "Deutsch"
            }
        ],
        "independent": false
    },
    {
        "name": "Lithuania",
        "capital": "Vilnius",
        "languages": [
            {
                "iso639_1": "lt",
                "iso639_2": "lit",
                "name": "Lithuanian",
                "nativeName": "lietuvių kalba"
            }
        ],
        "independent": false
    },
    {
        "name": "Luxembourg",
        "capital": "Luxembourg",
        "languages": [
            {
                "iso639_1": "fr",
                "iso639_2": "fra",
                "name": "French",
                "nativeName": "français"
            },
            {
                "iso639_1": "de",
                "iso639_2": "deu",
                "name": "German",
                "nativeName": "Deutsch"
            },
            {
                "iso639_1": "lb",
                "iso639_2": "ltz",
                "name": "Luxembourgish",
                "nativeName": "Lëtzebuergesch"
            }
        ],
        "independent": false
    },
    {
        "name": "Macao",
        "languages": [
            {
                "iso639_1": "zh",
                "iso639_2": "zho",
                "name": "Chinese",
                "nativeName": "中文 (Zhōngwén)"
            },
            {
                "iso639_1": "pt",
                "iso639_2": "por",
                "name": "Portuguese",
                "nativeName": "Português"
            }
        ],
        "independent": false
    },
    {
        "name": "North Macedonia",
        "capital": "Skopje",
        "languages": [
            {
                "iso639_1": "mk",
                "iso639_2": "mkd",
                "name": "Macedonian",
                "nativeName": "македонски јазик"
            }
        ],
        "independent": false
    },
    {
        "name": "Madagascar",
        "capital": "Antananarivo",
        "languages": [
            {
                "iso639_1": "fr",
                "iso639_2": "fra",
                "name": "French",
                "nativeName": "français"
            },
            {
                "iso639_1": "mg",
                "iso639_2": "mlg",
                "name": "Malagasy",
                "nativeName": "fiteny malagasy"
            }
        ],
        "independent": false
    },
    {
        "name": "Malawi",
        "capital": "Lilongwe",
        "languages": [
            {
                "iso639_1": "en",
                "iso639_2": "eng",
                "name": "English",
                "nativeName": "English"
            },
            {
                "iso639_1": "ny",
                "iso639_2": "nya",
                "name": "Chichewa",
                "nativeName": "chiCheŵa"
            }
        ],
        "independent": false
    },
    {
        "name": "Malaysia",
        "capital": "Kuala Lumpur",
        "languages": [
            {
                "iso639_1": "ms",
                "iso639_2": "zsm",
                "name": "Malaysian",
                "nativeName": "بهاس مليسيا"
            }
        ],
        "independent": false
    },
    {
        "name": "Maldives",
        "capital": "Malé",
        "languages": [
            {
                "iso639_1": "dv",
                "iso639_2": "div",
                "name": "Divehi",
                "nativeName": "ދިވެހި"
            }
        ],
        "independent": false
    },
    {
        "name": "Mali",
        "capital": "Bamako",
        "languages": [
            {
                "iso639_1": "fr",
                "iso639_2": "fra",
                "name": "French",
                "nativeName": "français"
            }
        ],
        "independent": false
    },
    {
        "name": "Malta",
        "capital": "Valletta",
        "languages": [
            {
                "iso639_1": "mt",
                "iso639_2": "mlt",
                "name": "Maltese",
                "nativeName": "Malti"
            },
            {
                "iso639_1": "en",
                "iso639_2": "eng",
                "name": "English",
                "nativeName": "English"
            }
        ],
        "independent": false
    },
    {
        "name": "Marshall Islands",
        "capital": "Majuro",
        "languages": [
            {
                "iso639_1": "en",
                "iso639_2": "eng",
                "name": "English",
                "nativeName": "English"
            },
            {
                "iso639_1": "mh",
                "iso639_2": "mah",
                "name": "Marshallese",
                "nativeName": "Kajin M̧ajeļ"
            }
        ],
        "independent": false
    },
    {
        "name": "Martinique",
        "capital": "Fort-de-France",
        "languages": [
            {
                "iso639_1": "fr",
                "iso639_2": "fra",
                "name": "French",
                "nativeName": "français"
            }
        ],
        "independent": false
    },
    {
        "name": "Mauritania",
        "capital": "Nouakchott",
        "languages": [
            {
                "iso639_1": "ar",
                "iso639_2": "ara",
                "name": "Arabic",
                "nativeName": "العربية"
            }
        ],
        "independent": false
    },
    {
        "name": "Mauritius",
        "capital": "Port Louis",
        "languages": [
            {
                "iso639_1": "en",
                "iso639_2": "eng",
                "name": "English",
                "nativeName": "English"
            }
        ],
        "independent": false
    },
    {
        "name": "Mayotte",
        "capital": "Mamoudzou",
        "languages": [
            {
                "iso639_1": "fr",
                "iso639_2": "fra",
                "name": "French",
                "nativeName": "français"
            }
        ],
        "independent": false
    },
    {
        "name": "Mexico",
        "capital": "Mexico City",
        "languages": [
            {
                "iso639_1": "es",
                "iso639_2": "spa",
                "name": "Spanish",
                "nativeName": "Español"
            }
        ],
        "independent": false
    },
    {
        "name": "Micronesia (Federated States of)",
        "capital": "Palikir",
        "languages": [
            {
                "iso639_1": "en",
                "iso639_2": "eng",
                "name": "English",
                "nativeName": "English"
            }
        ],
        "independent": false
    },
    {
        "name": "Moldova (Republic of)",
        "capital": "Chișinău",
        "languages": [
            {
                "iso639_1": "ro",
                "iso639_2": "ron",
                "name": "Romanian",
                "nativeName": "Română"
            }
        ],
        "independent": false
    },
    {
        "name": "Monaco",
        "capital": "Monaco",
        "languages": [
            {
                "iso639_1": "fr",
                "iso639_2": "fra",
                "name": "French",
                "nativeName": "français"
            }
        ],
        "independent": false
    },
    {
        "name": "Mongolia",
        "capital": "Ulan Bator",
        "languages": [
            {
                "iso639_1": "mn",
                "iso639_2": "mon",
                "name": "Mongolian",
                "nativeName": "Монгол хэл"
            }
        ],
        "independent": false
    },
    {
        "name": "Montenegro",
        "capital": "Podgorica",
        "languages": [
            {
                "iso639_1": "sr",
                "iso639_2": "srp",
                "name": "Serbian",
                "nativeName": "српски језик"
            },
            {
                "iso639_1": "bs",
                "iso639_2": "bos",
                "name": "Bosnian",
                "nativeName": "bosanski jezik"
            },
            {
                "iso639_1": "sq",
                "iso639_2": "sqi",
                "name": "Albanian",
                "nativeName": "Shqip"
            },
            {
                "iso639_1": "hr",
                "iso639_2": "hrv",
                "name": "Croatian",
                "nativeName": "hrvatski jezik"
            }
        ],
        "independent": false
    },
    {
        "name": "Montserrat",
        "capital": "Plymouth",
        "languages": [
            {
                "iso639_1": "en",
                "iso639_2": "eng",
                "name": "English",
                "nativeName": "English"
            }
        ],
        "independent": false
    },
    {
        "name": "Morocco",
        "capital": "Rabat",
        "languages": [
            {
                "iso639_1": "ar",
                "iso639_2": "ara",
                "name": "Arabic",
                "nativeName": "العربية"
            }
        ],
        "independent": false
    },
    {
        "name": "Mozambique",
        "capital": "Maputo",
        "languages": [
            {
                "iso639_1": "pt",
                "iso639_2": "por",
                "name": "Portuguese",
                "nativeName": "Português"
            }
        ],
        "independent": false
    },
    {
        "name": "Myanmar",
        "capital": "Naypyidaw",
        "languages": [
            {
                "iso639_1": "my",
                "iso639_2": "mya",
                "name": "Burmese",
                "nativeName": "ဗမာစာ"
            }
        ],
        "independent": false
    },
    {
        "name": "Namibia",
        "capital": "Windhoek",
        "languages": [
            {
                "iso639_1": "en",
                "iso639_2": "eng",
                "name": "English",
                "nativeName": "English"
            },
            {
                "iso639_1": "af",
                "iso639_2": "afr",
                "name": "Afrikaans",
                "nativeName": "Afrikaans"
            }
        ],
        "independent": false
    },
    {
        "name": "Nauru",
        "capital": "Yaren",
        "languages": [
            {
                "iso639_1": "en",
                "iso639_2": "eng",
                "name": "English",
                "nativeName": "English"
            },
            {
                "iso639_1": "na",
                "iso639_2": "nau",
                "name": "Nauruan",
                "nativeName": "Dorerin Naoero"
            }
        ],
        "independent": false
    },
    {
        "name": "Nepal",
        "capital": "Kathmandu",
        "languages": [
            {
                "iso639_1": "ne",
                "iso639_2": "nep",
                "name": "Nepali",
                "nativeName": "नेपाली"
            }
        ],
        "independent": false
    },
    {
        "name": "Netherlands",
        "capital": "Amsterdam",
        "languages": [
            {
                "iso639_1": "nl",
                "iso639_2": "nld",
                "name": "Dutch",
                "nativeName": "Nederlands"
            }
        ],
        "independent": false
    },
    {
        "name": "New Caledonia",
        "capital": "Nouméa",
        "languages": [
            {
                "iso639_1": "fr",
                "iso639_2": "fra",
                "name": "French",
                "nativeName": "français"
            }
        ],
        "independent": false
    },
    {
        "name": "New Zealand",
        "capital": "Wellington",
        "languages": [
            {
                "iso639_1": "en",
                "iso639_2": "eng",
                "name": "English",
                "nativeName": "English"
            },
            {
                "iso639_1": "mi",
                "iso639_2": "mri",
                "name": "Māori",
                "nativeName": "te reo Māori"
            }
        ],
        "independent": false
    },
    {
        "name": "Nicaragua",
        "capital": "Managua",
        "languages": [
            {
                "iso639_1": "es",
                "iso639_2": "spa",
                "name": "Spanish",
                "nativeName": "Español"
            }
        ],
        "independent": false
    },
    {
        "name": "Niger",
        "capital": "Niamey",
        "languages": [
            {
                "iso639_1": "fr",
                "iso639_2": "fra",
                "name": "French",
                "nativeName": "français"
            }
        ],
        "independent": false
    },
    {
        "name": "Nigeria",
        "capital": "Abuja",
        "languages": [
            {
                "iso639_1": "en",
                "iso639_2": "eng",
                "name": "English",
                "nativeName": "English"
            }
        ],
        "independent": false
    },
    {
        "name": "Niue",
        "capital": "Alofi",
        "languages": [
            {
                "iso639_1": "en",
                "iso639_2": "eng",
                "name": "English",
                "nativeName": "English"
            }
        ],
        "independent": false
    },
    {
        "name": "Norfolk Island",
        "capital": "Kingston",
        "languages": [
            {
                "iso639_1": "en",
                "iso639_2": "eng",
                "name": "English",
                "nativeName": "English"
            }
        ],
        "independent": false
    },
    {
        "name": "Korea (Democratic People's Republic of)",
        "capital": "Pyongyang",
        "languages": [
            {
                "iso639_1": "ko",
                "iso639_2": "kor",
                "name": "Korean",
                "nativeName": "한국어"
            }
        ],
        "independent": false
    },
    {
        "name": "Northern Mariana Islands",
        "capital": "Saipan",
        "languages": [
            {
                "iso639_1": "en",
                "iso639_2": "eng",
                "name": "English",
                "nativeName": "English"
            },
            {
                "iso639_1": "ch",
                "iso639_2": "cha",
                "name": "Chamorro",
                "nativeName": "Chamoru"
            }
        ],
        "independent": false
    },
    {
        "name": "Norway",
        "capital": "Oslo",
        "languages": [
            {
                "iso639_1": "no",
                "iso639_2": "nor",
                "name": "Norwegian",
                "nativeName": "Norsk"
            },
            {
                "iso639_1": "nb",
                "iso639_2": "nob",
                "name": "Norwegian Bokmål",
                "nativeName": "Norsk bokmål"
            },
            {
                "iso639_1": "nn",
                "iso639_2": "nno",
                "name": "Norwegian Nynorsk",
                "nativeName": "Norsk nynorsk"
            }
        ],
        "independent": false
    },
    {
        "name": "Oman",
        "capital": "Muscat",
        "languages": [
            {
                "iso639_1": "ar",
                "iso639_2": "ara",
                "name": "Arabic",
                "nativeName": "العربية"
            }
        ],
        "independent": false
    },
    {
        "name": "Pakistan",
        "capital": "Islamabad",
        "languages": [
            {
                "iso639_1": "ur",
                "iso639_2": "urd",
                "name": "Urdu",
                "nativeName": "اردو"
            },
            {
                "iso639_1": "en",
                "iso639_2": "eng",
                "name": "English",
                "nativeName": "English"
            }
        ],
        "independent": false
    },
    {
        "name": "Palau",
        "capital": "Ngerulmud",
        "languages": [
            {
                "iso639_1": "en",
                "iso639_2": "eng",
                "name": "English",
                "nativeName": "English"
            }
        ],
        "independent": false
    },
    {
        "name": "Palestine, State of",
        "capital": "Ramallah",
        "languages": [
            {
                "iso639_1": "ar",
                "iso639_2": "ara",
                "name": "Arabic",
                "nativeName": "العربية"
            }
        ],
        "independent": false
    },
    {
        "name": "Panama",
        "capital": "Panama City",
        "languages": [
            {
                "iso639_1": "es",
                "iso639_2": "spa",
                "name": "Spanish",
                "nativeName": "Español"
            }
        ],
        "independent": false
    },
    {
        "name": "Papua New Guinea",
        "capital": "Port Moresby",
        "languages": [
            {
                "iso639_1": "en",
                "iso639_2": "eng",
                "name": "English",
                "nativeName": "English"
            }
        ],
        "independent": false
    },
    {
        "name": "Paraguay",
        "capital": "Asunción",
        "languages": [
            {
                "iso639_1": "es",
                "iso639_2": "spa",
                "name": "Spanish",
                "nativeName": "Español"
            },
            {
                "iso639_1": "gn",
                "iso639_2": "grn",
                "name": "Guaraní",
                "nativeName": "Avañe'ẽ"
            }
        ],
        "independent": false
    },
    {
        "name": "Peru",
        "capital": "Lima",
        "languages": [
            {
                "iso639_1": "es",
                "iso639_2": "spa",
                "name": "Spanish",
                "nativeName": "Español"
            }
        ],
        "independent": false
    },
    {
        "name": "Philippines",
        "capital": "Manila",
        "languages": [
            {
                "iso639_1": "en",
                "iso639_2": "eng",
                "name": "English",
                "nativeName": "English"
            }
        ],
        "independent": false
    },
    {
        "name": "Pitcairn",
        "capital": "Adamstown",
        "languages": [
            {
                "iso639_1": "en",
                "iso639_2": "eng",
                "name": "English",
                "nativeName": "English"
            }
        ],
        "independent": false
    },
    {
        "name": "Poland",
        "capital": "Warsaw",
        "languages": [
            {
                "iso639_1": "pl",
                "iso639_2": "pol",
                "name": "Polish",
                "nativeName": "język polski"
            }
        ],
        "independent": false
    },
    {
        "name": "Portugal",
        "capital": "Lisbon",
        "languages": [
            {
                "iso639_1": "pt",
                "iso639_2": "por",
                "name": "Portuguese",
                "nativeName": "Português"
            }
        ],
        "independent": false
    },
    {
        "name": "Puerto Rico",
        "capital": "San Juan",
        "languages": [
            {
                "iso639_1": "es",
                "iso639_2": "spa",
                "name": "Spanish",
                "nativeName": "Español"
            },
            {
                "iso639_1": "en",
                "iso639_2": "eng",
                "name": "English",
                "nativeName": "English"
            }
        ],
        "independent": false
    },
    {
        "name": "Qatar",
        "capital": "Doha",
        "languages": [
            {
                "iso639_1": "ar",
                "iso639_2": "ara",
                "name": "Arabic",
                "nativeName": "العربية"
            }
        ],
        "independent": false
    },
    {
        "name": "Republic of Kosovo",
        "capital": "Pristina",
        "languages": [
            {
                "iso639_1": "sq",
                "iso639_2": "sqi",
                "name": "Albanian",
                "nativeName": "Shqip"
            },
            {
                "iso639_1": "sr",
                "iso639_2": "srp",
                "name": "Serbian",
                "nativeName": "српски језик"
            }
        ],
        "independent": false
    },
    {
        "name": "Réunion",
        "capital": "Saint-Denis",
        "languages": [
            {
                "iso639_1": "fr",
                "iso639_2": "fra",
                "name": "French",
                "nativeName": "français"
            }
        ],
        "independent": false
    },
    {
        "name": "Romania",
        "capital": "Bucharest",
        "languages": [
            {
                "iso639_1": "ro",
                "iso639_2": "ron",
                "name": "Romanian",
                "nativeName": "Română"
            }
        ],
        "independent": false
    },
    {
        "name": "Russian Federation",
        "capital": "Moscow",
        "languages": [
            {
                "iso639_1": "ru",
                "iso639_2": "rus",
                "name": "Russian",
                "nativeName": "Русский"
            }
        ],
        "independent": false
    },
    {
        "name": "Rwanda",
        "capital": "Kigali",
        "languages": [
            {
                "iso639_1": "rw",
                "iso639_2": "kin",
                "name": "Kinyarwanda",
                "nativeName": "Ikinyarwanda"
            },
            {
                "iso639_1": "en",
                "iso639_2": "eng",
                "name": "English",
                "nativeName": "English"
            },
            {
                "iso639_1": "fr",
                "iso639_2": "fra",
                "name": "French",
                "nativeName": "français"
            }
        ],
        "independent": false
    },
    {
        "name": "Saint Barthélemy",
        "capital": "Gustavia",
        "languages": [
            {
                "iso639_1": "fr",
                "iso639_2": "fra",
                "name": "French",
                "nativeName": "français"
            }
        ],
        "independent": false
    },
    {
        "name": "Saint Helena, Ascension and Tristan da Cunha",
        "capital": "Jamestown",
        "languages": [
            {
                "iso639_1": "en",
                "iso639_2": "eng",
                "name": "English",
                "nativeName": "English"
            }
        ],
        "independent": false
    },
    {
        "name": "Saint Kitts and Nevis",
        "capital": "Basseterre",
        "languages": [
            {
                "iso639_1": "en",
                "iso639_2": "eng",
                "name": "English",
                "nativeName": "English"
            }
        ],
        "independent": false
    },
    {
        "name": "Saint Lucia",
        "capital": "Castries",
        "languages": [
            {
                "iso639_1": "en",
                "iso639_2": "eng",
                "name": "English",
                "nativeName": "English"
            }
        ],
        "independent": false
    },
    {
        "name": "Saint Martin (French part)",
        "capital": "Marigot",
        "languages": [
            {
                "iso639_1": "en",
                "iso639_2": "eng",
                "name": "English",
                "nativeName": "English"
            },
            {
                "iso639_1": "fr",
                "iso639_2": "fra",
                "name": "French",
                "nativeName": "français"
            },
            {
                "iso639_1": "nl",
                "iso639_2": "nld",
                "name": "Dutch",
                "nativeName": "Nederlands"
            }
        ],
        "independent": false
    },
    {
        "name": "Saint Pierre and Miquelon",
        "capital": "Saint-Pierre",
        "languages": [
            {
                "iso639_1": "fr",
                "iso639_2": "fra",
                "name": "French",
                "nativeName": "français"
            }
        ],
        "independent": false
    },
    {
        "name": "Saint Vincent and the Grenadines",
        "capital": "Kingstown",
        "languages": [
            {
                "iso639_1": "en",
                "iso639_2": "eng",
                "name": "English",
                "nativeName": "English"
            }
        ],
        "independent": false
    },
    {
        "name": "Samoa",
        "capital": "Apia",
        "languages": [
            {
                "iso639_1": "sm",
                "iso639_2": "smo",
                "name": "Samoan",
                "nativeName": "gagana fa'a Samoa"
            },
            {
                "iso639_1": "en",
                "iso639_2": "eng",
                "name": "English",
                "nativeName": "English"
            }
        ],
        "independent": false
    },
    {
        "name": "San Marino",
        "capital": "City of San Marino",
        "languages": [
            {
                "iso639_1": "it",
                "iso639_2": "ita",
                "name": "Italian",
                "nativeName": "Italiano"
            }
        ],
        "independent": false
    },
    {
        "name": "Sao Tome and Principe",
        "capital": "São Tomé",
        "languages": [
            {
                "iso639_1": "pt",
                "iso639_2": "por",
                "name": "Portuguese",
                "nativeName": "Português"
            }
        ],
        "independent": false
    },
    {
        "name": "Saudi Arabia",
        "capital": "Riyadh",
        "languages": [
            {
                "iso639_1": "ar",
                "iso639_2": "ara",
                "name": "Arabic",
                "nativeName": "العربية"
            }
        ],
        "independent": false
    },
    {
        "name": "Senegal",
        "capital": "Dakar",
        "languages": [
            {
                "iso639_1": "fr",
                "iso639_2": "fra",
                "name": "French",
                "nativeName": "français"
            }
        ],
        "independent": false
    },
    {
        "name": "Serbia",
        "capital": "Belgrade",
        "languages": [
            {
                "iso639_1": "sr",
                "iso639_2": "srp",
                "name": "Serbian",
                "nativeName": "српски језик"
            }
        ],
        "independent": false
    },
    {
        "name": "Seychelles",
        "capital": "Victoria",
        "languages": [
            {
                "iso639_1": "fr",
                "iso639_2": "fra",
                "name": "French",
                "nativeName": "français"
            },
            {
                "iso639_1": "en",
                "iso639_2": "eng",
                "name": "English",
                "nativeName": "English"
            }
        ],
        "independent": false
    },
    {
        "name": "Sierra Leone",
        "capital": "Freetown",
        "languages": [
            {
                "iso639_1": "en",
                "iso639_2": "eng",
                "name": "English",
                "nativeName": "English"
            }
        ],
        "independent": false
    },
    {
        "name": "Singapore",
        "capital": "Singapore",
        "languages": [
            {
                "iso639_1": "en",
                "iso639_2": "eng",
                "name": "English",
                "nativeName": "English"
            },
            {
                "iso639_1": "ms",
                "iso639_2": "msa",
                "name": "Malay",
                "nativeName": "bahasa Melayu"
            },
            {
                "iso639_1": "ta",
                "iso639_2": "tam",
                "name": "Tamil",
                "nativeName": "தமிழ்"
            },
            {
                "iso639_1": "zh",
                "iso639_2": "zho",
                "name": "Chinese",
                "nativeName": "中文 (Zhōngwén)"
            }
        ],
        "independent": false
    },
    {
        "name": "Sint Maarten (Dutch part)",
        "capital": "Philipsburg",
        "languages": [
            {
                "iso639_1": "nl",
                "iso639_2": "nld",
                "name": "Dutch",
                "nativeName": "Nederlands"
            },
            {
                "iso639_1": "en",
                "iso639_2": "eng",
                "name": "English",
                "nativeName": "English"
            }
        ],
        "independent": false
    },
    {
        "name": "Slovakia",
        "capital": "Bratislava",
        "languages": [
            {
                "iso639_1": "sk",
                "iso639_2": "slk",
                "name": "Slovak",
                "nativeName": "slovenčina"
            }
        ],
        "independent": false
    },
    {
        "name": "Slovenia",
        "capital": "Ljubljana",
        "languages": [
            {
                "iso639_1": "sl",
                "iso639_2": "slv",
                "name": "Slovene",
                "nativeName": "slovenski jezik"
            }
        ],
        "independent": false
    },
    {
        "name": "Solomon Islands",
        "capital": "Honiara",
        "languages": [
            {
                "iso639_1": "en",
                "iso639_2": "eng",
                "name": "English",
                "nativeName": "English"
            }
        ],
        "independent": false
    },
    {
        "name": "Somalia",
        "capital": "Mogadishu",
        "languages": [
            {
                "iso639_1": "so",
                "iso639_2": "som",
                "name": "Somali",
                "nativeName": "Soomaaliga"
            },
            {
                "iso639_1": "ar",
                "iso639_2": "ara",
                "name": "Arabic",
                "nativeName": "العربية"
            }
        ],
        "independent": false
    },
    {
        "name": "South Africa",
        "capital": "Pretoria",
        "languages": [
            {
                "iso639_1": "af",
                "iso639_2": "afr",
                "name": "Afrikaans",
                "nativeName": "Afrikaans"
            },
            {
                "iso639_1": "en",
                "iso639_2": "eng",
                "name": "English",
                "nativeName": "English"
            },
            {
                "iso639_1": "nr",
                "iso639_2": "nbl",
                "name": "Southern Ndebele",
                "nativeName": "isiNdebele"
            },
            {
                "iso639_1": "st",
                "iso639_2": "sot",
                "name": "Southern Sotho",
                "nativeName": "Sesotho"
            },
            {
                "iso639_1": "ss",
                "iso639_2": "ssw",
                "name": "Swati",
                "nativeName": "SiSwati"
            },
            {
                "iso639_1": "tn",
                "iso639_2": "tsn",
                "name": "Tswana",
                "nativeName": "Setswana"
            },
            {
                "iso639_1": "ts",
                "iso639_2": "tso",
                "name": "Tsonga",
                "nativeName": "Xitsonga"
            },
            {
                "iso639_1": "ve",
                "iso639_2": "ven",
                "name": "Venda",
                "nativeName": "Tshivenḓa"
            },
            {
                "iso639_1": "xh",
                "iso639_2": "xho",
                "name": "Xhosa",
                "nativeName": "isiXhosa"
            },
            {
                "iso639_1": "zu",
                "iso639_2": "zul",
                "name": "Zulu",
                "nativeName": "isiZulu"
            }
        ],
        "independent": false
    },
    {
        "name": "South Georgia and the South Sandwich Islands",
        "capital": "King Edward Point",
        "languages": [
            {
                "iso639_1": "en",
                "iso639_2": "eng",
                "name": "English",
                "nativeName": "English"
            }
        ],
        "independent": false
    },
    {
        "name": "Korea (Republic of)",
        "capital": "Seoul",
        "languages": [
            {
                "iso639_1": "ko",
                "iso639_2": "kor",
                "name": "Korean",
                "nativeName": "한국어"
            }
        ],
        "independent": false
    },
    {
        "name": "Spain",
        "capital": "Madrid",
        "languages": [
            {
                "iso639_1": "es",
                "iso639_2": "spa",
                "name": "Spanish",
                "nativeName": "Español"
            }
        ],
        "independent": false
    },
    {
        "name": "Sri Lanka",
        "capital": "Sri Jayawardenepura Kotte",
        "languages": [
            {
                "iso639_1": "si",
                "iso639_2": "sin",
                "name": "Sinhalese",
                "nativeName": "සිංහල"
            },
            {
                "iso639_1": "ta",
                "iso639_2": "tam",
                "name": "Tamil",
                "nativeName": "தமிழ்"
            }
        ],
        "independent": false
    },
    {
        "name": "Sudan",
        "capital": "Khartoum",
        "languages": [
            {
                "iso639_1": "ar",
                "iso639_2": "ara",
                "name": "Arabic",
                "nativeName": "العربية"
            },
            {
                "iso639_1": "en",
                "iso639_2": "eng",
                "name": "English",
                "nativeName": "English"
            }
        ],
        "independent": false
    },
    {
        "name": "South Sudan",
        "capital": "Juba",
        "languages": [
            {
                "iso639_1": "en",
                "iso639_2": "eng",
                "name": "English",
                "nativeName": "English"
            }
        ],
        "independent": false
    },
    {
        "name": "Suriname",
        "capital": "Paramaribo",
        "languages": [
            {
                "iso639_1": "nl",
                "iso639_2": "nld",
                "name": "Dutch",
                "nativeName": "Nederlands"
            }
        ],
        "independent": false
    },
    {
        "name": "Svalbard and Jan Mayen",
        "capital": "Longyearbyen",
        "languages": [
            {
                "iso639_1": "no",
                "iso639_2": "nor",
                "name": "Norwegian",
                "nativeName": "Norsk"
            }
        ],
        "independent": false
    },
    {
        "name": "Swaziland",
        "capital": "Mbabane",
        "languages": [
            {
                "iso639_1": "en",
                "iso639_2": "eng",
                "name": "English",
                "nativeName": "English"
            },
            {
                "iso639_1": "ss",
                "iso639_2": "ssw",
                "name": "Swati",
                "nativeName": "SiSwati"
            }
        ],
        "independent": false
    },
    {
        "name": "Sweden",
        "capital": "Stockholm",
        "languages": [
            {
                "iso639_1": "sv",
                "iso639_2": "swe",
                "name": "Swedish",
                "nativeName": "svenska"
            }
        ],
        "independent": false
    },
    {
        "name": "Switzerland",
        "capital": "Bern",
        "languages": [
            {
                "iso639_1": "de",
                "iso639_2": "deu",
                "name": "German",
                "nativeName": "Deutsch"
            },
            {
                "iso639_1": "fr",
                "iso639_2": "fra",
                "name": "French",
                "nativeName": "français"
            },
            {
                "iso639_1": "it",
                "iso639_2": "ita",
                "name": "Italian",
                "nativeName": "Italiano"
            },
            {
                "iso639_2": "roh",
                "name": "Romansh"
            }
        ],
        "independent": false
    },
    {
        "name": "Syrian Arab Republic",
        "capital": "Damascus",
        "languages": [
            {
                "iso639_1": "ar",
                "iso639_2": "ara",
                "name": "Arabic",
                "nativeName": "العربية"
            }
        ],
        "independent": false
    },
    {
        "name": "Taiwan",
        "capital": "Taipei",
        "languages": [
            {
                "iso639_1": "zh",
                "iso639_2": "zho",
                "name": "Chinese",
                "nativeName": "中文 (Zhōngwén)"
            }
        ],
        "independent": false
    },
    {
        "name": "Tajikistan",
        "capital": "Dushanbe",
        "languages": [
            {
                "iso639_1": "tg",
                "iso639_2": "tgk",
                "name": "Tajik",
                "nativeName": "тоҷикӣ"
            },
            {
                "iso639_1": "ru",
                "iso639_2": "rus",
                "name": "Russian",
                "nativeName": "Русский"
            }
        ],
        "independent": false
    },
    {
        "name": "Tanzania, United Republic of",
        "capital": "Dodoma",
        "languages": [
            {
                "iso639_1": "sw",
                "iso639_2": "swa",
                "name": "Swahili",
                "nativeName": "Kiswahili"
            },
            {
                "iso639_1": "en",
                "iso639_2": "eng",
                "name": "English",
                "nativeName": "English"
            }
        ],
        "independent": false
    },
    {
        "name": "Thailand",
        "capital": "Bangkok",
        "languages": [
            {
                "iso639_1": "th",
                "iso639_2": "tha",
                "name": "Thai",
                "nativeName": "ไทย"
            }
        ],
        "independent": false
    },
    {
        "name": "Timor-Leste",
        "capital": "Dili",
        "languages": [
            {
                "iso639_1": "pt",
                "iso639_2": "por",
                "name": "Portuguese",
                "nativeName": "Português"
            }
        ],
        "independent": false
    },
    {
        "name": "Togo",
        "capital": "Lomé",
        "languages": [
            {
                "iso639_1": "fr",
                "iso639_2": "fra",
                "name": "French",
                "nativeName": "français"
            }
        ],
        "independent": false
    },
    {
        "name": "Tokelau",
        "capital": "Fakaofo",
        "languages": [
            {
                "iso639_1": "en",
                "iso639_2": "eng",
                "name": "English",
                "nativeName": "English"
            }
        ],
        "independent": false
    },
    {
        "name": "Tonga",
        "capital": "Nuku'alofa",
        "languages": [
            {
                "iso639_1": "en",
                "iso639_2": "eng",
                "name": "English",
                "nativeName": "English"
            },
            {
                "iso639_1": "to",
                "iso639_2": "ton",
                "name": "Tonga (Tonga Islands)",
                "nativeName": "faka Tonga"
            }
        ],
        "independent": false
    },
    {
        "name": "Trinidad and Tobago",
        "capital": "Port of Spain",
        "languages": [
            {
                "iso639_1": "en",
                "iso639_2": "eng",
                "name": "English",
                "nativeName": "English"
            }
        ],
        "independent": false
    },
    {
        "name": "Tunisia",
        "capital": "Tunis",
        "languages": [
            {
                "iso639_1": "ar",
                "iso639_2": "ara",
                "name": "Arabic",
                "nativeName": "العربية"
            }
        ],
        "independent": false
    },
    {
        "name": "Turkey",
        "capital": "Ankara",
        "languages": [
            {
                "iso639_1": "tr",
                "iso639_2": "tur",
                "name": "Turkish",
                "nativeName": "Türkçe"
            }
        ],
        "independent": false
    },
    {
        "name": "Turkmenistan",
        "capital": "Ashgabat",
        "languages": [
            {
                "iso639_1": "tk",
                "iso639_2": "tuk",
                "name": "Turkmen",
                "nativeName": "Türkmen"
            },
            {
                "iso639_1": "ru",
                "iso639_2": "rus",
                "name": "Russian",
                "nativeName": "Русский"
            }
        ],
        "independent": false
    },
    {
        "name": "Turks and Caicos Islands",
        "capital": "Cockburn Town",
        "languages": [
            {
                "iso639_1": "en",
                "iso639_2": "eng",
                "name": "English",
                "nativeName": "English"
            }
        ],
        "independent": false
    },
    {
        "name": "Tuvalu",
        "capital": "Funafuti",
        "languages": [
            {
                "iso639_1": "en",
                "iso639_2": "eng",
                "name": "English",
                "nativeName": "English"
            }
        ],
        "independent": false
    },
    {
        "name": "Uganda",
        "capital": "Kampala",
        "languages": [
            {
                "iso639_1": "en",
                "iso639_2": "eng",
                "name": "English",
                "nativeName": "English"
            },
            {
                "iso639_1": "sw",
                "iso639_2": "swa",
                "name": "Swahili",
                "nativeName": "Kiswahili"
            }
        ],
        "independent": false
    },
    {
        "name": "Ukraine",
        "capital": "Kyiv",
        "languages": [
            {
                "iso639_1": "uk",
                "iso639_2": "ukr",
                "name": "Ukrainian",
                "nativeName": "Українська"
            }
        ],
        "independent": false
    },
    {
        "name": "United Arab Emirates",
        "capital": "Abu Dhabi",
        "languages": [
            {
                "iso639_1": "ar",
                "iso639_2": "ara",
                "name": "Arabic",
                "nativeName": "العربية"
            }
        ],
        "independent": false
    },
    {
        "name": "United Kingdom of Great Britain and Northern Ireland",
        "capital": "London",
        "languages": [
            {
                "iso639_1": "en",
                "iso639_2": "eng",
                "name": "English",
                "nativeName": "English"
            }
        ],
        "independent": false
    },
    {
        "name": "United States of America",
        "capital": "Washington, D.C.",
        "languages": [
            {
                "iso639_1": "en",
                "iso639_2": "eng",
                "name": "English",
                "nativeName": "English"
            }
        ],
        "independent": false
    },
    {
        "name": "Uruguay",
        "capital": "Montevideo",
        "languages": [
            {
                "iso639_1": "es",
                "iso639_2": "spa",
                "name": "Spanish",
                "nativeName": "Español"
            }
        ],
        "independent": false
    },
    {
        "name": "Uzbekistan",
        "capital": "Tashkent",
        "languages": [
            {
                "iso639_1": "uz",
                "iso639_2": "uzb",
                "name": "Uzbek",
                "nativeName": "Oʻzbek"
            },
            {
                "iso639_1": "ru",
                "iso639_2": "rus",
                "name": "Russian",
                "nativeName": "Русский"
            }
        ],
        "independent": false
    },
    {
        "name": "Vanuatu",
        "capital": "Port Vila",
        "languages": [
            {
                "iso639_1": "bi",
                "iso639_2": "bis",
                "name": "Bislama",
                "nativeName": "Bislama"
            },
            {
                "iso639_1": "en",
                "iso639_2": "eng",
                "name": "English",
                "nativeName": "English"
            },
            {
                "iso639_1": "fr",
                "iso639_2": "fra",
                "name": "French",
                "nativeName": "français"
            }
        ],
        "independent": false
    },
    {
        "name": "Venezuela (Bolivarian Republic of)",
        "capital": "Caracas",
        "languages": [
            {
                "iso639_1": "es",
                "iso639_2": "spa",
                "name": "Spanish",
                "nativeName": "Español"
            }
        ],
        "independent": false
    },
    {
        "name": "Vietnam",
        "capital": "Hanoi",
        "languages": [
            {
                "iso639_1": "vi",
                "iso639_2": "vie",
                "name": "Vietnamese",
                "nativeName": "Tiếng Việt"
            }
        ],
        "independent": false
    },
    {
        "name": "Wallis and Futuna",
        "capital": "Mata-Utu",
        "languages": [
            {
                "iso639_1": "fr",
                "iso639_2": "fra",
                "name": "French",
                "nativeName": "français"
            }
        ],
        "independent": false
    },
    {
        "name": "Western Sahara",
        "capital": "El Aaiún",
        "languages": [
            {
                "iso639_1": "es",
                "iso639_2": "spa",
                "name": "Spanish",
                "nativeName": "Español"
            }
        ],
        "independent": false
    },
    {
        "name": "Yemen",
        "capital": "Sana'a",
        "languages": [
            {
                "iso639_1": "ar",
                "iso639_2": "ara",
                "name": "Arabic",
                "nativeName": "العربية"
            }
        ],
        "independent": false
    },
    {
        "name": "Zambia",
        "capital": "Lusaka",
        "languages": [
            {
                "iso639_1": "en",
                "iso639_2": "eng",
                "name": "English",
                "nativeName": "English"
            }
        ],
        "independent": false
    },
    {
        "name": "Zimbabwe",
        "capital": "Harare",
        "languages": [
            {
                "iso639_1": "en",
                "iso639_2": "eng",
                "name": "English",
                "nativeName": "English"
            },
            {
                "iso639_1": "sn",
                "iso639_2": "sna",
                "name": "Shona",
                "nativeName": "chiShona"
            },
            {
                "iso639_1": "nd",
                "iso639_2": "nde",
                "name": "Northern Ndebele",
                "nativeName": "isiNdebele"
            }
        ],
        "independent": false
    }
]